STARLINK-5656           
1 55451U 23015C   23051.09030076  .00079652  00000+0  60429-3 0  9999
2 55451  42.9997 281.6854 0002154 259.4578 100.6048 15.71384445  2955
STARLINK-5683           
1 55452U 23015D   23051.09008855  .00046442  00000+0  35489-3 0  9999
2 55452  42.9997 281.6847 0002280 267.5383  92.5224 15.71403571  2959
STARLINK-5684           
1 55453U 23015E   23051.08990411 -.00147661  00000+0 -11305-2 0  9994
2 55453  42.9990 281.6831 0003037 259.8826 100.1700 15.71599916  2957
STARLINK-5636           
1 55454U 23015F   23051.58334491  .00063366  00000+0  48395-3 0  9997
2 55454  42.9999 278.7015 0001724 270.0034   6.1573 15.71307755  1304
STARLINK-5680           
1 55455U 23015G   23051.09019247  .00074546  00000+0  56593-3 0  9994
2 55455  42.9992 281.6855 0002180 261.3855  98.6766 15.71392361  2953
STARLINK-5058           
1 55456U 23015H   23051.08977514  .00063729  00000+0  48568-3 0  9998
2 55456  42.9988 281.6828 0001876 266.2218  93.8435 15.71356523  2957
STARLINK-5682           
1 55457U 23015J   23051.08987566  .00044478  00000+0  34040-3 0  9997
2 55457  42.9990 281.6825 0002129 256.3352 103.7279 15.71383003  2959
STARLINK-5020           
1 55458U 23015K   23051.08924807  .00053845  00000+0  41076-3 0  9992
2 55458  42.9990 281.6764 0002006 285.8179  74.2467 15.71391848  2957
STARLINK-5669           
1 55459U 23015L   23051.08945328  .00040362  00000+0  30927-3 0  9997
2 55459  43.0001 281.6779 0001934 264.2652  95.7995 15.71391127  2959
STARLINK-5678           
1 55460U 23015M   23051.08935099  .00050013  00000+0  38201-3 0  9990
2 55460  42.9992 281.6786 0002072 261.4580  98.6053 15.71387862  2957
STARLINK-5646           
1 55461U 23015N   23050.96244007  .00057805  00000+0  44094-3 0  9992
2 55461  42.9995 282.4478 0001990 267.4274  92.6366 15.71368450  2933
STARLINK-5673           
1 55462U 23015P   23051.08893046  .00057445  00000+0  43797-3 0  9999
2 55462  42.9986 281.6752 0002202 256.7205 103.3417 15.71382263  2959
STARLINK-5677           
1 55463U 23015Q   23050.89845418  .00035996  00000+0  27667-3 0  9993
2 55463  42.9998 282.8270 0002298 284.5716  75.4897 15.71361580  2929
STARLINK-5676           
1 55464U 23015R   23051.08861535  .00051516  00000+0  39308-3 0  9995
2 55464  42.9992 281.6726 0002265 253.3852 106.6767 15.71401629  2951
STARLINK-5674           
1 55465U 23015S   23051.08882299  .00057240  00000+0  43624-3 0  9992
2 55465  42.9994 281.6744 0002058 258.9060 101.1576 15.71393110  2959
STARLINK-5628           
1 55466U 23015T   23051.02463451  .00080530  00000+0  61101-3 0  9990
2 55466  43.0000 282.0520 0002306 252.2824 107.7792 15.71378006  2946
STARLINK-5679           
1 55467U 23015U   23051.08891788  .00045141  00000+0  34664-3 0  9998
2 55467  42.9990 281.6750 0003353 226.5834 133.4755 15.71293886  2959
STARLINK-5672           
1 55468U 23015V   23051.08840976 -.00119350  00000+0 -91177-3 0  9990
2 55468  42.9995 281.6705 0002731 255.5849 104.4716 15.71556174  2959
STARLINK-5681           
1 55469U 23015W   23051.08871812  .00065299  00000+0  49668-3 0  9992
2 55469  42.9990 281.6736 0002300 248.8365 111.2257 15.71393266  2956
STARLINK-5708           
1 55470U 23015X   23051.08832581 -.00181432  00000+0 -13947-2 0  9994
2 55470  42.9987 281.6712 0002724 260.9758  99.0801 15.71613922  2951
STARLINK-5711           
1 55471U 23015Y   23051.58334491  .00116402  00000+0  88025-3 0  9990
2 55471  43.0001 278.6815 0002492 268.8616  14.9767 15.71313104  1307
STARLINK-5705           
1 55472U 23015Z   23051.08788163  .00056083  00000+0  42803-3 0  9997
2 55472  42.9986 281.6661 0002039 246.4952 113.5702 15.71366588  2954
STARLINK-5687           
1 55473U 23015AA  23051.08808684  .00095291  00000+0  72018-3 0  9994
2 55473  42.9988 281.6687 0002862 227.8485 132.2140 15.71406621  2950
STARLINK-5689           
1 55474U 23015AB  23050.89688292  .00047916  00000+0  36656-3 0  9993
2 55474  42.9999 282.8168 0002250 274.5793  85.4817 15.71365712  2924
STARLINK-5650           
1 55475U 23015AC  23051.58334491  .00073992  00000+0  56355-3 0  9991
2 55475  42.9999 278.6776 0002133 260.6116  25.0553 15.71317972  1301
STARLINK-5596           
1 55476U 23015AD  23051.91668981 -.01308642  00000+0 -96631-2 0  9999
2 55476  42.9787 275.3916 0001116 287.5034 232.4161 15.74707742  3092
STARLINK-5685           
1 55477U 23015AE  23051.08758336 -.00159462  00000+0 -12217-2 0  9993
2 55477  42.9994 281.6631 0003892 232.3842 127.6673 15.71616303  2951
STARLINK-5691           
1 55478U 23015AF  23051.08685551 -.00114309  00000+0 -87370-3 0  9996
2 55478  42.9988 281.6579 0002923 244.5820 115.4746 15.71525178  2956
STARLINK-5688           
1 55479U 23015AG  23050.89708737  .00062687  00000+0  47752-3 0  9996
2 55479  43.0000 282.8180 0002380 277.8179  82.2418 15.71372015  2922
STARLINK-5690           
1 55480U 23015AH  23051.08719579  .00532291  00000+0  38808-2 0  9990
2 55480  42.9985 281.6619 0001285 315.5832  44.4933 15.70907421  2956
STARLINK-5694           
1 55481U 23015AJ  23051.08735389  .00086471  00000+0  65492-3 0  9992
2 55481  42.9997 281.6636 0002215 251.3108 108.7520 15.71394208  2956
STARLINK-5693           
1 55482U 23015AK  23051.08632223  .00052351  00000+0  39990-3 0  9990
2 55482  42.9989 281.6534 0002703 241.7328 118.3267 15.71368079  2956
STARLINK-5692           
1 55483U 23015AL  23050.89616425  .00089369  00000+0  67812-3 0  9998
2 55483  43.0000 282.8101 0002324 280.5025  79.5581 15.71337859  2926
STARLINK-5696           
1 55484U 23015AM  23050.76870493  .00061661  00000+0  47009-3 0  9993
2 55484  42.9992 283.5745 0001961 259.9441 100.1206 15.71359227  2901
STARLINK-5695           
1 55485U 23015AN  23051.08713991  .00044560  00000+0  34104-3 0  9990
2 55485  42.9986 281.6610 0002577 247.5804 112.4791 15.71380773  2955
STARLINK-5704           
1 55486U 23015AP  23051.08661476  .00045729  00000+0  34989-3 0  9990
2 55486  42.9987 281.6567 0002560 243.5423 116.5182 15.71377996  2955
STARLINK-5701           
1 55487U 23015AQ  23050.89656390  .00034270  00000+0  26349-3 0  9998
2 55487  42.9998 282.8130 0002160 281.2648  78.7977 15.71374094  2925
STARLINK-5706           
1 55488U 23015AR  23050.95888305  .00041553  00000+0  31882-3 0  9999
2 55488  42.9985 282.4195 0001971 252.2816 107.7837 15.71348751  2933
STARLINK-5371           
1 55489U 23015AS  23051.08672189  .00048016  00000+0  36714-3 0  9996
2 55489  42.9990 281.6569 0002370 250.9372 109.1240 15.71376568  2955
STARLINK-5373           
1 55490U 23015AT  23051.08579897  .00119389  00000+0  89977-3 0  9991
2 55490  42.9996 281.6496 0002189 263.5340  96.5278 15.71383765  2952
STARLINK-5364           
1 55491U 23015AU  23051.08392210  .00032382  00000+0  24891-3 0  9995
2 55491  42.9980 281.6247 0002220 237.7735 122.2918 15.71403231  2956
STARLINK-5013           
1 55492U 23015AV  23051.08609159  .00021555  00000+0  16724-3 0  9995
2 55492  42.9988 281.6520 0002308 248.1343 111.9279 15.71375974  2954
STARLINK-5362           
1 55493U 23015AW  23051.08588114  .00068595  00000+0  52167-3 0  9999
2 55493  42.9993 281.6509 0002031 261.0341  99.0297 15.71380389  2955
STARLINK-5344           
1 55494U 23015AX  23051.08569284  .00092940  00000+0  70334-3 0  9994
2 55494  42.9990 281.6496 0002580 248.6551 111.4042 15.71385823  2956
STARLINK-5100           
1 55495U 23015AY  23050.70485145  .00035996  00000+0  27696-3 0  9997
2 55495  42.9993 283.9549 0001829 297.0771  62.9910 15.71337485  2899
STARLINK-5139           
1 55496U 23015AZ  23051.08537793  .00056582  00000+0  43184-3 0  9991
2 55496  42.9995 281.6451 0002503 230.8370 129.2276 15.71362318  2951
STARLINK-5363           
1 55497U 23015BA  23051.08556655  .00040276  00000+0  30897-3 0  9990
2 55497  42.9990 281.6469 0003369 232.5755 127.4807 15.71360425  2950
STARLINK-5365           
1 55498U 23015BB  23051.08524817  .00035536  00000+0  27292-3 0  9994
2 55498  42.9994 281.6454 0002319 265.6051  94.4552 15.71385327  2957
STARLINK-5366           
1 55499U 23015BC  23051.08503798  .00020377  00000+0  15822-3 0  9993
2 55499  42.9988 281.6437 0003389 223.6327 136.4273 15.71387347  3705
STARLINK-5141           
1 55500U 23015BD  23051.08538199  .00143896  00000+0  10596-2 0  9993
2 55500  42.9987 281.6478 0003136 279.7113  80.3401 15.71845731  2959
STARLINK-5367           
1 55501U 23015BE  23051.08514540  .00066616  00000+0  50688-3 0  9999
2 55501  42.9997 281.6439 0002148 252.2672 107.7961 15.71378259  2957
FALCON 9 DEB            
1 55502U 23015BF  23051.68226262  .00233501  00000+0  86863-3 0  9990
2 55502  42.9884 276.5990 0015577 279.1635  80.7476 15.86430699  3062
FALCON 9 DEB            
1 55503U 23015BG  23051.04570845  .00250951  30271-4  92441-3 0  9995
2 55503  42.9856 280.4217 0018030 272.1409  87.7399 15.87233041  2969
FALCON 9 DEB            
1 55504U 23015BH  23051.78781104  .00229611  26999-4  78228-3 0  9997
2 55504  42.9809 275.6410 0018952 290.8325  69.0519 15.88777140  3081
FALCON 9 DEB            
1 55505U 23015BJ  23051.53553724  .00235762  27924-4  81723-3 0  9993
2 55505  42.9785 277.1875 0020596 284.9495  74.9099 15.88372748  3045
ELEKTRO-L 4             
1 55506U 23016A   23048.30374443 -.00000037  00000+0  00000+0 0  9997
2 55506   0.5382 285.1176 0014854 236.2514 239.0930  1.01513727   122
BLOCK DM-SL R/B         
1 55507U 23016B   23049.93910700 -.00000133  00000+0  00000+0 0  9997
2 55507   0.4061 275.9778 0096361  29.5302  53.5611  1.03219637   144
AMAZONAS NEXUS          
1 55508U 23017A   23040.08992635 -.00000333  00000+0  00000+0 0  9995
2 55508  25.0543 351.1512 8150843 178.8279 187.3709  1.25612863    24
FALCON 9 R/B            
1 55509U 23017B   23048.05522156  .00001006  00000+0  23504-2 0  9992
2 55509  24.9411 349.6435 8170614 181.2257 173.4294  1.25162264   126
